#aV2011  1 13  0  0   .00000000      96 DD+AD WGS84 FIT  NGA
## 1618 345600.00000000   900.00000000 55574  .0000000000000
+   32     1  2  3  4  5  6  7  8  9 10 11 12 13 14 15 16 17
+         18 19 20 21 22 23 24 25 26 27 28 29 30 31 32  0  0
+          0  0  0  0  0  0  0  0  0  0  0  0  0  0  0  0  0
+          0  0  0  0  0  0  0  0  0  0  0  0  0  0  0  0  0
+          0  0  0  0  0  0  0  0  0  0  0  0  0  0  0  0  0
++         0  0  0  0  0  0  0  0  0  0  0  0  0  0  0  0  0
++         0  0  0  0  0  0  0  0  0  0  0  0  0  0  0  0  0
++         0  0  0  0  0  0  0  0  0  0  0  0  0  0  0  0  0
++         0  0  0  0  0  0  0  0  0  0  0  0  0  0  0  0  0
++         0  0  0  0  0  0  0  0  0  0  0  0  0  0  0  0  0
%c cc cc ccc ccc cccc cccc cccc cccc ccccc ccccc ccccc ccccc
%c cc cc ccc ccc cccc cccc cccc cccc ccccc ccccc ccccc ccccc
%f  0.0000000  0.000000000  0.00000000000  0.000000000000000
%f  0.0000000  0.000000000  0.00000000000  0.000000000000000
%i    0    0    0    0      0      0      0      0         0
%i    0    0    0    0      0      0      0      0         0
/*      NGA, ST. LOUIS,MO.                                  
/*   EPHEMERIS COMPUTED FROM  3 DAYS OF DATA                
/* CCCCCCCCCCCCCCCCCCCCCCCCCCCCCCCCCCCCCCCCCCCCCCCCCCCCCCCCC
/* CCCCCCCCCCCCCCCCCCCCCCCCCCCCCCCCCCCCCCCCCCCCCCCCCCCCCCCCC
*  2011  1 13  3  0   .00000000                                                 
P  1   6022.390072 -25496.397461   3795.461746   -199.605066                    
V  1   2013.792969   5284.380335  31505.455277      -.032295                    
P  2   7780.332761  20176.378892  15739.835447    314.362770                    
V  2 -17149.155111 -10190.090217  21078.231667       .021689                    
P  3  -2957.224369 -16408.071750 -21030.827351    661.744088                    
V  3  23046.085912 -12007.449068   6574.128578       .051558                    
P  4  -4210.241367  15860.245343  20617.720613      7.215041                    
V  4 -21852.036542 -15560.594045   7786.295221       .099391                    
P  5   2916.469246  24874.225443  -8702.842030    -97.982059                    
V  5  -4238.310718  10601.217721  29040.019522      -.059561                    
P  6   2749.312832 -17365.911339 -19692.737819     -3.597984                    
V  6  23687.822377  -9570.301935  11844.267172      -.307184                    
P  7 -20310.356677  -1045.721295 -17184.345349      1.733629                    
V  7 -16251.989941 -14480.912190  19886.586704       .005767                    
P  8 -12817.575122   7659.643298 -22002.719444      7.145612                    
V  8 -20587.172658 -18719.208048   4943.765234       .001072                    
P  9  21467.312514  15631.135281    198.978715     54.999149                    
V  9   -531.124390   2257.045746 -32221.260789       .024004                    
P 10  -7730.160087  24582.730065   5351.863656    -63.090760                    
V 10  -2240.515650  -7577.514072  30772.158261      -.010003                    
P 11 -24393.195799 -10974.851408   -408.096909   -118.847088                    
V 11   2055.424807  -4306.079639 -29832.462422      -.031031                    
P 12  11542.135673  13627.792844  19745.223661    -36.289540                    
V 12  -4633.210524  24495.754035 -14068.765284       .033241                    
P 13 -25641.706275   5045.073934   4744.494849    286.082420                    
V 13   5321.471544  -3600.523071  31636.351546      -.012609                    
P 14  18648.433601 -14814.672347  11772.284412    123.329433                    
V 14  14485.487578  -3155.487183 -27411.268997       .029344                    
P 15  17781.102114   6740.285443 -18585.504937   -161.836147                    
V 15 -21073.571129  10761.149535 -16090.217168       .038192                    
P 16    719.648601 -25866.234468  -5237.865798   -142.227222                    
V 16   3624.130410  -6223.739456  31318.689231      -.030568                    
P 17 -19542.028688  14860.294949   9959.948083    181.558482                    
V 17 -12674.279482   1975.940323 -28371.505349       .006716                    
P 18  15419.356917 -10488.058183 -18478.558343    115.632577                    
V 18  -1658.361722  24326.782858 -15320.987197       .020920                    
P 19 -13579.616313 -10625.426409 -20284.229631   -100.981068                    
V 19  24204.297097  -8640.869149 -11349.415672      -.036199                    
P 20 -14403.961062  -8435.740415  20527.485440     48.805205                    
V 20   3545.147667 -26258.481116  -8177.675696      -.000973                    
P 21  20371.550721     -8.086876 -16976.832490   -116.272863                    
V 21  16163.539074  15263.553212  18353.673660      -.027408                    
P 22  11481.205439 -21230.662025 -10814.554961    155.228820                    
V 22   1080.353629  14413.677493 -26833.214461      -.007113                    
P 23 -21945.769480  -2404.985967  15002.964779    332.525675                    
V 23  16927.691366  -8603.621073  23051.038039      -.022827                    
P 24 -21757.984182 -14990.375720   3928.041348    356.038419                    
V 24  -1789.686466  -5411.570765 -30781.031751       .032281                    
P 25  15387.057162  -2872.095119  21443.958447    -63.288885                    
V 25  -2764.847636  27119.988436   5613.044279      -.020208                    
P 26   4175.134696  14265.017382 -22579.694974    -94.856525                    
V 26 -25913.843398   8293.976216    869.604638      -.091724                    
P 27  19695.939670  17305.686933  -4373.802099    226.414340                    
V 27  -6380.323441  -1965.786841 -31366.528236       .038015                    
P 28 -12593.216920  18530.847150 -13538.146875     14.276288                    
V 28    912.191636 -18245.801789 -25170.136983       .019850                    
P 29  25215.777919  -3796.694410   7436.668014    177.636176                    
V 29  -7846.960256   5731.576890  29883.489321       .026881                    
P 30   4073.913513 -26104.292969   2408.167203    313.001400                    
V 30   2545.733033   3813.030787  31519.778906       .033047                    
P 31   1645.892028 -16549.045569  20874.553630     29.102141                    
V 31  20982.191035  15406.635085  10862.485151       .042380                    
P 32  -9062.289153 -17757.347529  18040.673598   -173.875852                    
V 32   6183.117585 -21338.687133 -17810.679020      -.081423                    
EOF
